OBJECT_NAME,OBJECT_ID,EPOCH,MEAN_MOTION,ECCENTRICITY,INCLINATION,RA_OF_ASC_NODE,ARG_OF_PERICENTER,MEAN_ANOMALY,EPHEMERIS_TYPE,CLASSIFICATION_TYPE,NORAD_CAT_ID,ELEMENT_SET_NO,REV_AT_EPOCH,BSTAR,MEAN_MOTION_DOT,MEAN_MOTION_DDOT
HST,1990-037B,2026-06-02T08:13:52.267584,15.30586461,.00017007,28.4711,182.0162,354.7953,5.2625,0,U,20580,999,78629,.18209235E-3,.5773E-4,0
POLAR,1996-013A,2026-06-04T17:07:11.718912,1.29846118,.6458114,79.8402,227.1988,209.5112,89.0597,0,U,23802,999,14469,0,.122E-5,0
SWAS,1998-071A,2026-06-05T00:32:04.153920,15.09540121,.00087254,69.8965,258.8876,270.9385,89.0779,0,U,25560,999,49543,.32718114E-3,.5163E-4,0
CXO,1999-040B,2026-06-07T19:09:26.033472,0.37800379,.78542001,55.9928,116.9568,310.2595,0.2905,0,U,25867,999,1728,0,.708E-5,0
XMM-NEWTON,1999-066A,2026-06-06T09:05:24.562464,0.50125302,.46783319,64.5482,283.1267,65.0797,0.1118,0,U,25989,999,2295,0,.96E-6,0
TERRA,1999-068A,2026-06-05T05:38:13.335648,14.61093305,.00008321,97.9461,206.2545,255.4360,146.5617,0,U,25994,999,40786,.95145711E-4,.423E-5,0
CLUSTER II-FM7 (SAMBA),2000-041A,2026-06-05T23:36:57.501504,0.44829937,.90409651,149.8917,48.5803,265.6480,0.0292,0,U,26410,999,2025,0,.4453E-4,0
CLUSTER II-FM8 (TANGO),2000-045B,2026-06-03T22:20:35.712960,0.44411373,.90429738,150.1347,49.2777,266.1813,3.2525,0,U,26464,999,2025,0,.9075E-4,0
ODIN,2001-007A,2026-06-05T01:51:31.380192,15.71871760,.00063013,97.3851,196.2749,158.1180,202.0353,0,U,26702,999,38749,.10497223E-2,.138173E-2,0
TIMED,2001-055B,2026-06-05T00:46:12.792864,14.95265500,.00004295,74.0681,259.4915,5.8341,354.2849,0,U,26998,999,32900,.1528469E-3,.1644E-4,0
CORIOLIS,2003-001A,2026-06-05T06:55:32.972448,14.19941512,.00128821,98.7126,163.3550,245.3640,114.6195,0,U,27640,999,21253,.69162668E-4,.103E-5,0
SORCE,2003-004A,2026-06-05T04:26:05.371296,15.03645274,.00182659,39.9921,330.1529,322.3449,37.6066,0,U,27651,999,27009,.21992909E-3,.2922E-4,0
MOST,2003-031D,2026-06-05T07:32:29.302656,14.21319954,.00087392,98.7044,164.2057,289.2190,70.8041,0,U,27843,999,18902,.51948061E-4,.69E-6,0
SCISAT 1,2003-036A,2026-06-05T06:32:53.727648,14.81435274,.00087084,73.9290,195.0149,263.7223,96.2962,0,U,27858,999,22968,.78321459E-4,.577E-5,0
SWIFT,2004-047A,2026-05-31T18:26:25.832256,15.66645040,.00032893,20.5544,311.3972,74.7681,285.3128,0,U,28485,999,18428,.56851703E-3,.63707E-3,0
HINODE (SOLAR-B),2006-041A,2026-06-05T07:55:44.362848,14.68605749,.0016619,98.0550,172.6577,330.1513,29.8743,0,U,29479,999,5313,.14982412E-3,.823E-5,0
SHIJIAN-6 02A (SJ-6 02A),2006-046A,2026-06-05T08:23:15.084096,15.16795426,.00035961,97.6362,197.3282,152.3423,207.8001,0,U,29505,999,7047,.2001336E-3,.3862E-4,0
SHIJIAN-6 02B (SJ-6 02B),2006-046B,2026-06-05T08:23:38.114016,15.01346219,.00143933,97.7157,185.4815,94.7792,265.5076,0,U,29506,999,6896,.14743737E-3,.1842E-4,0
FGRST (GLAST),2008-029A,2026-06-05T01:11:09.864672,15.23882787,.00081714,25.5830,288.7580,180.1054,179.9483,0,U,33053,999,99398,.15973653E-3,.4308E-4,0
SDO,2010-005A,2026-06-04T07:48:38.613024,1.00271400,.00013318,34.6250,86.5380,46.7195,134.7054,0,U,36395,999,5993,0,-.7E-6,0
CRYOSAT 2,2010-013A,2026-06-05T07:06:26.598816,14.51895710,.00022603,92.0346,274.4120,85.3485,274.7981,0,U,36508,999,85635,.32563595E-4,.134E-5,0
X-SAT,2011-015C,2026-06-05T06:58:28.409376,14.25202173,.00147375,98.3509,133.8813,22.6845,337.4984,0,U,37389,999,78598,.29498249E-4,.28E-6,0
GCOM-W1 (SHIZUKU),2012-025A,2026-06-05T01:47:36.062016,14.57113109,.00018436,98.2019,96.8140,84.8297,285.8902,0,U,38337,999,74727,.13936289E-3,.583E-5,0
NUSTAR,2012-031A,2026-06-05T08:00:03.000384,15.08681739,.00088732,6.0257,123.0330,286.7070,41.8262,0,U,38358,999,130,.12188628E-2,.20613E-3,0
NEOSSAT,2013-009D,2026-06-05T05:21:43.522560,14.35822099,.00098111,98.4175,336.5409,283.7861,76.2233,0,U,39089,999,69502,.61964823E-4,.137E-5,0
BRITE-AUSTRIA,2013-009F,2026-06-05T05:28:18.854400,14.36537135,.00089627,98.3993,335.9601,276.8792,83.1375,0,U,39091,999,69533,.76469003E-4,.182E-5,0
IRIS,2013-033A,2026-06-05T01:02:30.973920,14.85860331,.00244777,97.9337,355.3586,2.3032,357.8291,0,U,39197,999,69857,.14700333E-3,.1231E-4,0
HISAKI (SPRINT-A),2013-049A,2026-06-05T01:12:01.603584,13.55543351,.01369296,29.7212,281.7184,278.4998,80.0077,0,U,39253,999,62977,.1022878E-3,.142E-5,0
CASSIOPE,2013-055A,2026-06-05T03:38:47.663520,15.24099504,.02968135,80.9143,81.3226,102.7680,260.6896,0,U,39265,999,66583,.42960122E-3,.38844E-3,-.622517E-6
STSAT-3,2013-066G,2026-06-05T06:14:40.912800,15.02682048,.00108267,97.6213,126.3419,76.2287,284.0142,0,U,39422,999,68241,.32530624E-3,.4286E-4,0
